OPTICUBE 04             
1 41851U 16067D   19125.22486123  .00000546  00000-0  52945-4 0  9999
2 41851  97.9139 222.3069 0009320 162.6610 197.4931 14.96793007135266
AEROCUBE 8D             
1 41852U 16067E   19124.82364307  .00000689  00000-0  65641-4 0  9999
2 41852  97.9150 221.7263 0010076 164.8844 195.2680 14.96690662135183
AEROCUBE 8C             
1 41853U 16067F   19124.51117499 -.00000311  00000-0 -21948-4 0  9990
2 41853  97.9146 221.3504 0010137 169.2591 190.8848 14.96653034135133
PROMETHEUS 2-1          
1 41854U 16067G   19125.22021715  .00000990  00000-0  91565-4 0  9998
2 41854  97.9156 222.1821 0010863 165.0384 195.1160 14.96856038135242
PROMETHEUS 2-3          
1 41855U 16067H   19125.22270068  .00000940  00000-0  87209-4 0  9991
2 41855  97.9159 222.1986 0010995 165.3169 194.8373 14.96861986135248
INS-1B                  
1 41954U 17008G   19124.77865224  .00001200  00000-0  52728-4 0  9998
2 41954  97.4031 190.4038 0007780 310.4683  49.5875 15.23825977122968
BGUSAT                  
1 41999U 17008BD  19124.82545901  .00002471  00000-0  99149-4 0  9999
2 41999  97.4097 192.6298 0006900 328.5086  31.5738 15.25918823122459
DIDO-2                  
1 42000U 17008BE  19124.17578774  .00000838  00000-0  37706-4 0  9991
2 42000  97.4045 190.3495 0007621 335.2150  24.8720 15.23808294122272
PEASSS                  
1 42015U 17008BV  19124.23357109  .00001158  00000-0  49653-4 0  9991
2 42015  97.4051 191.2925 0005692 345.3253  14.7818 15.24750987122828
AL-FARABI 1             
1 42016U 17008BW  19125.16925580  .00001518  00000-0  63058-4 0  9994
2 42016  97.4064 192.7074 0005401 341.4986  18.6055 15.25357754123117
NAYIF-1 (EO-88)         
1 42017U 17008BX  19125.15771866  .00001530  00000-0  63450-4 0  9990
2 42017  97.4062 192.7057 0005399 341.8502  18.2543 15.25389603123139
PHOENIX                 
1 42706U 98067LP  19125.20446997  .01492113  11846-4  78014-3 0  9996
2 42706  51.6127 127.5106 0002768  33.9641 326.1553 16.19494175112820
ALTAIR PATHFINDER       
1 42711U 98067LS  19124.60413451  .00034042  00000-0  20270-3 0  9993
2 42711  51.6333 163.1235 0004451 350.3484   9.7430 15.77606827111960
SHARC                   
1 42712U 98067LT  19123.64217769  .08981558  12375-4  84912-3 0  9997
2 42712  51.6192 152.4129 0003348 312.8737 146.7300 16.37776182112255
ZA-AEROSAT              
1 42713U 98067LU  19125.21059952  .00213046  30077-4  41318-3 0  9995
2 42713  51.6250 136.0518 0006634  30.6193 329.5203 15.99852518112374
NJUST-1                 
1 42722U 98067MB  19125.12316407  .00091145  14160-4  30809-3 0  9998
2 42722  51.6340 144.4358 0007762  26.3638  80.7401 15.89925729111322
NSIGHT                  
1 42726U 98067MF  19125.16947139  .00019305  00000-0  16417-3 0  9999
2 42726  51.6354 176.1689 0006233   6.2022 353.9051 15.69606976110824
BEEAGLESAT              
1 42736U 98067MR  19116.58349394  .05344197  12378-4  56382-3 0  9990
2 42736  51.6116 172.4218 0006034 335.7210 140.8917 16.36759636110007
UCLSAT                  
1 42765U 17036A   19124.45624971  .00001228  00000-0  55678-4 0  9994
2 42765  97.3552 183.4246 0012432  36.6070 323.6013 15.22629720103580
LITUANICASAT-2          
1 42768U 17036D   19125.15842522  .00002254  00000-0  99686-4 0  9996
2 42768  97.3581 183.6922 0015632  23.6439 336.5512 15.22610767103531
AALTO-1                 
1 42775U 17036L   19124.73787933  .00000785  00000-0  38116-4 0  9999
2 42775  97.3538 182.5517 0014623  24.9237 335.2702 15.21260179103374
URSA MAIOR              
1 42776U 17036M   19125.16285269  .00000889  00000-0  42605-4 0  9996
2 42776  97.3547 183.1001 0014397  23.6072 336.5822 15.21387554103443
COMPASS 2               
1 42777U 17036N   19124.58859208  .00001622  00000-0  72361-4 0  9990
2 42777  97.3584 183.5876 0013219  27.7360 332.4579 15.22738386103400
DIAMOND RED             
1 42783U 17036U   19125.14299265  .00001030  00000-0  47900-4 0  9995
2 42783  97.3552 183.7348 0013061  34.7283 325.4803 15.22103502103470
PEGASUS                 
1 42784U 17036V   19124.40745412  .00001135  00000-0  52066-4 0  9999
2 42784  97.3557 183.2126 0013007  36.7826 323.4300 15.22382947103371
DIAMOND GREEN           
1 42785U 17036W   19125.14182159  .00001065  00000-0  49456-4 0  9996
2 42785  97.3555 183.7562 0012984  35.3244 324.8850 15.22103691103463
DIAMOND BLUE            
1 42786U 17036X   19124.61491941  .00000985  00000-0  45962-4 0  9998
2 42786  97.3555 183.2395 0012884  37.3650 322.8480 15.22100677103463
NUDTSAT                 
1 42787U 17036Y   19124.63020504  .00001781  00000-0  77882-4 0  9995
2 42787  97.3588 184.0344 0013330  31.9374 328.2668 15.23295082103287
SUCHAI                  
1 42788U 17036Z   19125.14942101  .00001425  00000-0  63854-4 0  9998
2 42788  97.3559 184.2077 0012484  34.0383 326.1652 15.22779751103575
SKCUBE                  
1 42789U 17036AA  19124.43951912  .00001279  00000-0  57793-4 0  9992
2 42789  97.3557 183.4643 0012420  36.4212 323.7867 15.22685952103380
VZLUSAT-1               
1 42790U 17036AB  19124.61706772  .00001666  00000-0  73067-4 0  9998
2 42790  97.3570 184.0253 0011937  35.7175 324.4858 15.23294815103432
ROBUSTA-1B              
1 42792U 17036AD  19124.83520538  .00001322  00000-0  59369-4 0  9996
2 42792  97.3556 183.9876 0011985  36.1222 324.0822 15.22850174103463
CICERO 6                
1 42793U 17036AE  19124.62091282  .00000888  00000-0  41297-4 0  9990
2 42793  97.3542 183.6004 0011301  38.7665 321.4380 15.22486460103496
D-SAT                   
1 42794U 17036AF  19125.11410477  .00000075  00000-0  12217-4 0  9995
2 42794  97.5444 171.7651 0125078 290.4910  68.2920 14.91069040101695
TOKI                    
1 42820U 98067MU  19123.10626650  .20777511  12651-4  37226-3 0  9990
2 42820  51.6051 142.7539 0005305 301.2009  59.2873 16.47402492104441
MAZAALAI (NUMSAT-1)     
1 42822U 98067MW  19125.19388069  .00852889  45468-3  65426-3 0  9996
2 42822  51.6191 135.0676 0005065  29.9770 330.1535 16.14411827104719
BRAC ONNESHA            
1 42823U 98067MX  19125.11742430  .02877576  12076-4  75218-3 0  9997
2 42823  51.6115 133.7238 0002161 336.6623  23.4300 16.27800721104726
NIGERIAEDUSAT-1         
1 42824U 98067MY  19125.14600568  .00671303  25672-3  62976-3 0  9996
2 42824  51.6209 136.3307 0006336  27.2047 332.9298 16.11438227104688
CORVUS BC2              
1 42846U 17042X   19124.60984908  .00000107  00000-0  15882-4 0  9995
2 42846  97.5707  20.3971 0008996 196.6244 163.4681 14.91954664 98293
CORVUS BC1              
1 42847U 17042Y   19124.76729903  .00000064  00000-0  11553-4 0  9998
2 42847  97.5709  20.6474 0008654 195.0134 165.0830 14.92054252 98311
MIRATA                  
1 43015U 17073C   19124.75952558  .00001060  00000-0  88922-4 0  9994
2 43015  97.7198  47.7218 0254505 304.4549  53.2849 14.78902486 78651
MAKERSAT 0              
1 43016U 17073D   19124.76652395  .00000711  00000-0  61547-4 0  9998
2 43016  97.7231  47.9239 0256561 304.7048  53.0233 14.78679130 78647
ASTERIA                 
1 43020U 98067NH  19124.65973409  .00021968  00000-0  19161-3 0  9996
2 43020  51.6415 189.4376 0002928 340.2672  19.8211 15.68907161 82787
DELLINGR (RBLE)         
1 43021U 98067NJ  19125.20459507  .00008196  00000-0  96457-4 0  9999
2 43021  51.6380 196.7302 0002325 312.4908  47.5890 15.62394890 82732
AEROCUBE 7B (OCSD B)    
1 43042U 17071F   19124.56479506  .00003879  00000-0  10248-3 0  9993
2 43042  51.6379 273.5014 0004513 357.8780   2.2185 15.40927632 79125
AEROCUBE 7C (OCSD C)    
1 43043U 17071G   19125.21330562  .00004017  00000-0  10581-3 0  9990
2 43043  51.6382 270.3453 0004739   2.4477 357.6531 15.40916046 79194
CHEFSAT                 
1 43044U 17071H   19124.56483176  .00006355  00000-0  14931-3 0  9998
2 43044  51.6382 269.1153 0004408 357.7137   2.3828 15.43340919 79152
ASGARDIA 1              
1 43049U 17071N   19124.97439884  .00003281  00000-0  87860-4 0  9992
2 43049  51.6388 271.0242 0002425  26.4546 333.6563 15.41042165 79151
ISARA                   
1 43050U 17071P   19124.82515511  .00005767  00000-0  13849-3 0  9996
2 43050  51.6377 268.5677 0002118  20.5779 339.5292 15.42866597 79176
PROPCUBE 2 (FAUNA)      
1 43052U 17071R   19124.79339523  .00003611  00000-0  94911-4 0  9997
2 43052  51.6386 271.3328 0002302  21.9545 338.1538 15.41298797 79138
CORVUS BC3              
1 43118U 18004H   19125.18566854  .00000820  00000-0  38147-4 0  9998
2 43118  97.4896 192.6826 0011769  54.0229 306.2097 15.22768417 72708
MICROMAS-2A             
1 43131U 18004W   19124.24298646  .00001958  00000-0  83861-4 0  9996
2 43131  97.4921 192.3298 0010851  59.5888 300.6420 15.23946061 72593
CICERO 7                
1 43143U 18004AJ  19124.73036297  .00001509  00000-0  65060-4 0  9998
2 43143  97.4908 193.0287 0009132  67.1888 293.0313 15.24109298 72682
GOMX-4B                 
1 43196U 18015E   19124.39715535  .00000588  00000-0  27163-4 0  9997
2 43196  97.3819 252.5979 0020196 104.7164 255.6282 15.23897978 69444
GOMX-4A                 
1 43197U 18015F   19125.05420072  .00000455  00000-0  21653-4 0  9992
2 43197  97.3845 253.2668 0020852 103.6383 344.4552 15.23986201 69554
1KUNS-PF                
1 43466U 98067NP  19125.03621757  .00019018  00000-0  19785-3 0  9994
2 43466  51.6372 200.8384 0001697 341.2193  18.8739 15.64616208 55926
UBAKUSAT                
1 43467U 98067NQ  19125.21343942  .00012682  00000-0  14903-3 0  9999
2 43467  51.6372 202.7675 0002218 282.1428  77.9317 15.61848449 55924
BATSU-CS1 (IRAZU)       
1 43468U 98067NR  19124.65131459  .00023559  00000-0  22310-3 0  9991
2 43468  51.6365 200.5045 0002176 344.1357  15.9570 15.66828907155888
CUBERRT                 
1 43546U 98067NU  19124.58434883  .00013346  00000-0  15020-3 0  9990
2 43546  51.6381 207.5611 0005931 328.4438  31.6200 15.62907654 45938
